SHIYAN-29               
1 65486U 25196A   26087.77749438 -.00000283  00000+0  00000+0 0  9996
2 65486  28.7378  19.5487 0009790 181.3850   0.4880  1.00280818  2078
